BLUEBON                 
1 62688U 25009CH  26068.70316231  .00010452  00000+0  37313-3 0  9992
2 62688  97.4017 152.2033 0001193  43.3900 316.7434 15.29047253 63767
STARLINK-34234          
1 64248U 25119R   26068.06745975  .00016564  00000+0  60997-3 0  9992
2 64248  43.0018 310.6096 0001591 264.1846  95.8825 15.27585996 44073
